{"type": "FeatureCollection", "features": [ {"type": "Feature", "properties": {"norad_id": 32289, "name": "YAOGAN-3", "group": "resource", "lat": 19.00594952276431, "lon": -172.99439440219393, "alt_km": 598.7611685995635, "timestamp": "2025-12-03T13:52:09.221805+00:00", "meta": {"OBJECT_NAME": "YAOGAN-3", "OBJECT_ID": "2007-055A", "EPOCH": "2025-12-03T08:18:52.147296", "MEAN_MOTION": 14.89782657, "ECCENTRICITY": 0.00015073, "INCLINATION": 97.8376, "RA_OF_ASC_NODE": 4.0568, "ARG_OF_PERICENTER": 77.6656, "MEAN_ANOMALY": 282.473, "EPHEMERIS_TYPE": 0, "CLASSIFICATION_TYPE": "U", "NORAD_CAT_ID": 32289, "ELEMENT_SET_NO": 999, "REV_AT_EPOCH": 97669, "BSTAR": 0.00038626836, "MEAN_MOTION_DOT": 3.65e-05, "MEAN_MOTION_DDOT": 0}, "tle": {"line1": "1 32289U 07055A   25337.34643689  .00003650  00000+0  38627-3 0  9996", "line2": "2 32289  97.8376   4.0568 0001507  77.6656 282.4730 14.89782657976699"}}, "geometry": {"type": "Point", "coordinates": [-172.99439440219393, 19.00594952276431]}}, {"type": "Feature", "properties": {"norad_id": 32376, "name": "COSMO-SKYMED 2", "group": "resource", "lat": -27.611045893106166, "lon": 163.19378616934566, "alt_km": 628.8330713214364, "timestamp": "2025-12-03T13:52:09.221816+00:00", "meta": {"OBJECT_NAME": "COSMO-SKYMED 2", "OBJECT_ID": "2007-059A", "EPOCH": "2025-12-03T09:08:02.580288", "MEAN_MOTION": 14.82146809, "ECCENTRICITY": 0.00015296, "INCLINATION": 97.8806, "RA_OF_ASC_NODE": 158.8451, "ARG_OF_PERICENTER": 88.2951, "MEAN_ANOMALY": 271.8438, "EPHEMERIS_TYPE": 0, "CLASSIFICATION_TYPE": "U", "NORAD_CAT_ID": 32376, "ELEMENT_SET_NO": 999, "REV_AT_EPOCH": 97299, "BSTAR": 0.00012524223, "MEAN_MOTION_DOT": 9.45e-06, "MEAN_MOTION_DDOT": 0}, "tle": {"line1": "1 32376U 07059A   25337.38058542  .00000945  00000+0  12524-3 0  9991", "line2": "2 32376  97.8806 158.8451 0001529  88.2951 271.8438 14.82146809972995"}}, "geometry": {"type": "Point", "coordinates": [163.19378616934566, -27.611045893106166]}}, {"type": "Feature", "properties": {"norad_id": 32382, "name": "RADARSAT-2", "group": "resource", "lat": -18.946152485656864, "lon": 159.33038914209286, "alt_km": 797.0731648692163, "timestamp": "2025-12-03T13:52:09.221827+00:00", "meta": {"OBJECT_NAME": "RADARSAT-2", "OBJECT_ID": "2007-061A", "EPOCH": "2025-12-03T07:54:12.466944", "MEAN_MOTION": 14.29983595, "ECCENTRICITY": 0.00010802, "INCLINATION": 98.58, "RA_OF_ASC_NODE": 342.0562, "ARG_OF_PERICENTER": 90.9972, "MEAN_ANOMALY": 269.1334, "EPHEMERIS_TYPE": 0, "CLASSIFICATION_TYPE": "U", "NORAD_CAT_ID": 32382, "ELEMENT_SET_NO": 999, "REV_AT_EPOCH": 93796, "BSTAR": 7.2950649e-05, "MEAN_MOTION_DOT": 1.44e-06, "MEAN_MOTION_DDOT": 0}, "tle": {"line1": "1 32382U 07061A   25337.32931096  .00000144  00000+0  72951-4 0  9991", "line2": "2 32382  98.5800 342.0562 0001080  90.9972 269.1334 14.29983595937964"}}, "geometry": {"type": "Point", "coordinates": [159.33038914209286, -18.946152485656864]}}, {"type": "Feature", "properties": {"norad_id": 32783, "name": "CARTOSAT-2A", "group": "resource", "lat": -38.13944628823758, "lon": -158.48717716215592, "alt_km": 647.9458769628818, "timestamp": "2025-12-03T13:52:09.221837+00:00", "meta": {"OBJECT_NAME": "CARTOSAT-2A", "OBJECT_ID": "2008-021A", "EPOCH": "2025-12-03T08:00:47.761632", "MEAN_MOTION": 14.78907984, "ECCENTRICITY": 0.00124969, "INCLINATION": 97.7944, "RA_OF_ASC_NODE": 27.4508, "ARG_OF_PERICENTER": 34.0082, "MEAN_ANOMALY": 326.1928, "EPHEMERIS_TYPE": 0, "CLASSIFICATION_TYPE": "U", "NORAD_CAT_ID": 32783, "ELEMENT_SET_NO": 999, "REV_AT_EPOCH": 94985, "BSTAR": 0.00019469108, "MEAN_MOTION_DOT": 1.386e-05, "MEAN_MOTION_DDOT": 0}, "tle": {"line1": "1 32783U 08021A   25337.33388613  .00001386  00000+0  19469-3 0  9998", "line2": "2 32783  97.7944  27.4508 0012496  34.0082 326.1928 14.78907984949853"}}, "geometry": {"type": "Point", "coordinates": [-158.48717716215592, -38.13944628823758]}}, {"type": "Feature", "properties": {"norad_id": 33320, "name": "HUANJING 1A (HJ-1A)", "group": "resource", "lat": -61.80242391186365, "lon": -19.214680402440273, "alt_km": 634.3285253653667, "timestamp": "2025-12-03T13:52:09.221848+00:00", "meta": {"OBJECT_NAME": "HUANJING 1A (HJ-1A)", "OBJECT_ID": "2008-041A", "EPOCH": "2025-12-03T07:40:33.881376", "MEAN_MOTION": 14.8334559, "ECCENTRICITY": 0.00206513, "INCLINATION": 97.6536, "RA_OF_ASC_NODE": 326.0124, "ARG_OF_PERICENTER": 63.5632, "MEAN_ANOMALY": 296.7698, "EPHEMERIS_TYPE": 0, "CLASSIFICATION_TYPE": "U", "NORAD_CAT_ID": 33320, "ELEMENT_SET_NO": 999, "REV_AT_EPOCH": 92936, "BSTAR": 0.00027120367, "MEAN_MOTION_DOT": 2.179e-05, "MEAN_MOTION_DDOT": 0}, "tle": {"line1": "1 33320U 08041A   25337.31983659  .00002179  00000+0  27120-3 0  9991", "line2": "2 33320  97.6536 326.0124 0020651  63.5632 296.7698 14.83345590929364"}}, "geometry": {"type": "Point", "coordinates": [-19.214680402440273, -61.80242391186365]}}, {"type": "Feature", "properties": {"norad_id": 33321, "name": "HUANJING 1B (HJ-1B)", "group": "resource", "lat": 2.1113370535732647, "lon": 150.26403891414876, "alt_km": 615.4329967537769, "timestamp": "2025-12-03T13:52:09.221858+00:00", "meta": {"OBJECT_NAME": "HUANJING 1B (HJ-1B)", "OBJECT_ID": "2008-041B", "EPOCH": "2025-12-03T08:12:54.611136", "MEAN_MOTION": 14.8278147, "ECCENTRICITY": 0.00381591, "INCLINATION": 97.6396, "RA_OF_ASC_NODE": 329.7554, "ARG_OF_PERICENTER": 105.4599, "MEAN_ANOMALY": 255.0835, "EPHEMERIS_TYPE": 0, "CLASSIFICATION_TYPE": "U", "NORAD_CAT_ID": 33321, "ELEMENT_SET_NO": 999, "REV_AT_EPOCH": 92938, "BSTAR": 0.000216911, "MEAN_MOTION_DOT": 1.724e-05, "MEAN_MOTION_DDOT": 0}, "tle": {"line1": "1 33321U 08041B   25337.34229874  .00001724  00000+0  21691-3 0  9999", "line2": "2 33321  97.6396 329.7554 0038159 105.4599 255.0835 14.82781470929389"}}, "geometry": {"type": "Point", "coordinates": [150.26403891414876, 2.1113370535732647]}}, {"type": "Feature", "properties": {"norad_id": 33331, "name": "GEOEYE 1", "group": "resource", "lat": 35.52120734039494, "lon": 43.11834689956718, "alt_km": 674.9430558500089, "timestamp": "2025-12-03T13:52:09.221869+00:00", "meta": {"OBJECT_NAME": "GEOEYE 1", "OBJECT_ID": "2008-042A", "EPOCH": "2025-12-03T07:08:52.797120", "MEAN_MOTION": 14.64791324, "ECCENTRICITY": 0.00029896, "INCLINATION": 98.1264, "RA_OF_ASC_NODE": 48.6961, "ARG_OF_PERICENTER": 317.7207, "MEAN_ANOMALY": 42.3765, "EPHEMERIS_TYPE": 0, "CLASSIFICATION_TYPE": "U", "NORAD_CAT_ID": 33331, "ELEMENT_SET_NO": 999, "REV_AT_EPOCH": 92147, "BSTAR": 0.00019236665, "MEAN_MOTION_DOT": 9.78e-06, "MEAN_MOTION_DDOT": 0}, "tle": {"line1": "1 33331U 08042A   25337.29783330  .00000978  00000+0  19237-3 0  9990", "line2": "2 33331  98.1264  48.6961 0002989 317.7207  42.3765 14.64791324921475"}}, "geometry": {"type": "Point", "coordinates": [43.11834689956718, 35.52120734039494]}}, {"type": "Feature", "properties": {"norad_id": 33396, "name": "THEOS", "group": "resource", "lat": -72.77933354186256, "lon": 65.11799201888012, "alt_km": 833.1026603336468, "timestamp": "2025-12-03T13:52:09.221880+00:00", "meta": {"OBJECT_NAME": "THEOS", "OBJECT_ID": "2008-049A", "EPOCH": "2025-12-03T09:08:56.765184", "MEAN_MOTION": 14.2009314, "ECCENTRICITY": 0.00010901, "INCLINATION": 98.5881, "RA_OF_ASC_NODE": 35.7464, "ARG_OF_PERICENTER": 100.4808, "MEAN_ANOMALY": 259.6492, "EPHEMERIS_TYPE": 0, "CLASSIFICATION_TYPE": "U", "NORAD_CAT_ID": 33396, "ELEMENT_SET_NO": 999, "REV_AT_EPOCH": 89017, "BSTAR": 7.298379e-05, "MEAN_MOTION_DOT": 1.13e-06, "MEAN_MOTION_DDOT": 0}, "tle": {"line1": "1 33396U 08049A   25337.38121256  .00000113  00000+0  72984-4 0  9991", "line2": "2 33396  98.5881  35.7464 0001090 100.4808 259.6492 14.20093140890171"}}, "geometry": {"type": "Point", "coordinates": [65.11799201888012, -72.77933354186256]}}, {"type": "Feature", "properties": {"norad_id": 33412, "name": "COSMO-SKYMED 3", "group": "resource", "lat": 81.53870507165013, "lon": 119.83266790049609, "alt_km": 548.3422024560214, "timestamp": "2025-12-03T13:52:09.221891+00:00", "meta": {"OBJECT_NAME": "COSMO-SKYMED 3", "OBJECT_ID": "2008-054A", "EPOCH": "2025-12-03T08:41:51.005760", "MEAN_MOTION": 15.05209912, "ECCENTRICITY": 0.00154151, "INCLINATION": 97.8469, "RA_OF_ASC_NODE": 187.5968, "ARG_OF_PERICENTER": 205.1681, "MEAN_ANOMALY": 154.8796, "EPHEMERIS_TYPE": 0, "CLASSIFICATION_TYPE": "U", "NORAD_CAT_ID": 33412, "ELEMENT_SET_NO": 999, "REV_AT_EPOCH": 92746, "BSTAR": 0.00043702292, "MEAN_MOTION_DOT": 6.189e-05, "MEAN_MOTION_DDOT": 0}, "tle": {"line1": "1 33412U 08054A   25337.36239590  .00006189  00000+0  43702-3 0  9999", "line2": "2 33412  97.8469 187.5968 0015415 205.1681 154.8796 15.05209912927463"}}, "geometry": {"type": "Point", "coordinates": [119.83266790049609, 81.53870507165013]}}, {"type": "Feature", "properties": {"norad_id": 33446, "name": "YAOGAN-4", "group": "resource", "lat": 81.29623708388816, "lon": 153.13543832759188, "alt_km": 615.2532149540875, "timestamp": "2025-12-03T13:52:09.221902+00:00", "meta": {"OBJECT_NAME": "YAOGAN-4", "OBJECT_ID": "2008-061A", "EPOCH": "2025-12-03T06:58:13.276416", "MEAN_MOTION": 14.82633768, "ECCENTRICITY": 0.00144144, "INCLINATION": 97.917, "RA_OF_ASC_NODE": 267.4833, "ARG_OF_PERICENTER": 354.9105, "MEAN_ANOMALY": 5.1959, "EPHEMERIS_TYPE": 0, "CLASSIFICATION_TYPE": "U", "NORAD_CAT_ID": 33446, "ELEMENT_SET_NO": 999, "REV_AT_EPOCH": 91663, "BSTAR": 0.0002872803, "MEAN_MOTION_DOT": 2.264e-05, "MEAN_MOTION_DDOT": 0}, "tle": {"line1": "1 33446U 08061A   25337.29043144  .00002264  00000+0  28728-3 0  9995", "line2": "2 33446  97.9170 267.4833 0014414 354.9105   5.1959 14.82633768916631"}}, "geometry": {"type": "Point", "coordinates": [153.13543832759188, 81.29623708388816]}}]}